[Satellite]
VERSION=1.1
NAME=TES
NICKNAME=TES
TLE1=1 26957U 01049A   15055.53710016  .00003551  00000-0  23646-3 0  9990
TLE2=2 26957  97.6843 144.0499 0043263  26.5071 333.8345 15.07015789731179
